STARLINK-36647          
1 67824U 26033D   26060.73727670  .00395522  00000+0  17932-2 0  9993
2 67824  42.9970 320.2299 0001849 278.1086  81.9576 15.82054357  3369
STARLINK-36648          
1 67825U 26033E   26060.73652704  .00381813  00000+0  17352-2 0  9993
2 67825  42.9973 320.2238 0001764 291.1182  68.9501 15.82038181  3364
STARLINK-35865          
1 67826U 26033F   26060.73577936  .00350838  00000+0  15976-2 0  9990
2 67826  42.9970 320.2167 0001571 254.1584 105.9115 15.82075216  3367
STARLINK-36289          
1 67827U 26033G   26060.73503007  .00799433  00000+0  34003-2 0  9999
2 67827  42.9971 320.2110 0002758 229.9256 130.1374 15.82393109  3362
STARLINK-36670          
1 67828U 26033H   26060.73427945  .00358019  00000+0  16313-2 0  9991
2 67828  42.9970 320.2048 0001720 287.4845  72.5839 15.82043553  3363
STARLINK-36144          
1 67829U 26033J   26060.73353092  .00246296  00000+0  11384-2 0  9999
2 67829  42.9978 320.1988 0002049 255.4798 104.5847 15.82031333  3369
STARLINK-36611          
1 67830U 26033K   26060.79591655  .00251318  00000+0  11587-2 0  9992
2 67830  42.9976 319.8046 0001383 259.7257 100.3458 15.82071326  3375
STARLINK-36661          
1 67831U 26033L   26060.79515891  .00361960  00000+0  16391-2 0  9994
2 67831  42.9978 319.7984 0002442 233.3425 126.7222 15.82165482  3378
STARLINK-36662          
1 67832U 26033M   26060.74505465  .00135592  00000+0  56665-3 0  9995
2 67832  42.9955 319.3836 0001973 269.9245  90.1401 15.84472365  3375
STARLINK-36659          
1 67833U 26033N   26060.79441272  .00317882  00000+0  14502-2 0  9993
2 67833  42.9977 319.7926 0001927 250.9129 109.1534 15.82121845  3374
STARLINK-36655          
1 67834U 26033P   26060.73053293  .00345405  00000+0  15768-2 0  9997
2 67834  42.9974 320.1745 0001634 278.6285  81.4402 15.82036696  3366
STARLINK-36657          
1 67835U 26033Q   26060.72978403  .00384518  00000+0  17438-2 0  9990
2 67835  42.9974 320.1684 0001465 285.9269  74.1441 15.82076317  3360
