CCSDS_OMM_VERS = 2.0
CREATION_DATE  = 
ORIGINATOR     = 

OBJECT_NAME    = STARLINK-36647
OBJECT_ID      = 2026-033D
CENTER_NAME    = EARTH
REF_FRAME      = TEME
TIME_SYSTEM    = UTC
MEAN_ELEMENT_THEORY = SGP/SGP4

EPOCH          = 2026-03-01T17:41:40.706880
MEAN_MOTION    = 15.82054357
ECCENTRICITY   = .0001849
INCLINATION    = 42.9970
RA_OF_ASC_NODE = 320.2299
ARG_OF_PERICENTER = 278.1086
MEAN_ANOMALY   = 81.9576

EPHEMERIS_TYPE = 0
CLASSIFICATION_TYPE = U
NORAD_CAT_ID   = 67824
ELEMENT_SET_NO = 999
REV_AT_EPOCH   = 336
BSTAR          = .17932E-2
MEAN_MOTION_DOT = .395522E-2
MEAN_MOTION_DDOT = 0

CCSDS_OMM_VERS = 2.0
CREATION_DATE  = 
ORIGINATOR     = 

OBJECT_NAME    = STARLINK-36648
OBJECT_ID      = 2026-033E
CENTER_NAME    = EARTH
REF_FRAME      = TEME
TIME_SYSTEM    = UTC
MEAN_ELEMENT_THEORY = SGP/SGP4

EPOCH          = 2026-03-01T17:40:35.936256
MEAN_MOTION    = 15.82038181
ECCENTRICITY   = .0001764
INCLINATION    = 42.9973
RA_OF_ASC_NODE = 320.2238
ARG_OF_PERICENTER = 291.1182
MEAN_ANOMALY   = 68.9501

EPHEMERIS_TYPE = 0
CLASSIFICATION_TYPE = U
NORAD_CAT_ID   = 67825
ELEMENT_SET_NO = 999
REV_AT_EPOCH   = 336
BSTAR          = .17352E-2
MEAN_MOTION_DOT = .381813E-2
MEAN_MOTION_DDOT = 0

CCSDS_OMM_VERS = 2.0
CREATION_DATE  = 
ORIGINATOR     = 

OBJECT_NAME    = STARLINK-35865
OBJECT_ID      = 2026-033F
CENTER_NAME    = EARTH
REF_FRAME      = TEME
TIME_SYSTEM    = UTC
MEAN_ELEMENT_THEORY = SGP/SGP4

EPOCH          = 2026-03-01T17:39:31.336704
MEAN_MOTION    = 15.82075216
ECCENTRICITY   = .0001571
INCLINATION    = 42.9970
RA_OF_ASC_NODE = 320.2167
ARG_OF_PERICENTER = 254.1584
MEAN_ANOMALY   = 105.9115

EPHEMERIS_TYPE = 0
CLASSIFICATION_TYPE = U
NORAD_CAT_ID   = 67826
ELEMENT_SET_NO = 999
REV_AT_EPOCH   = 336
BSTAR          = .15976E-2
MEAN_MOTION_DOT = .350838E-2
MEAN_MOTION_DDOT = 0

CCSDS_OMM_VERS = 2.0
CREATION_DATE  = 
ORIGINATOR     = 

OBJECT_NAME    = STARLINK-36289
OBJECT_ID      = 2026-033G
CENTER_NAME    = EARTH
REF_FRAME      = TEME
TIME_SYSTEM    = UTC
MEAN_ELEMENT_THEORY = SGP/SGP4

EPOCH          = 2026-03-01T17:38:26.598048
MEAN_MOTION    = 15.82393109
ECCENTRICITY   = .0002758
INCLINATION    = 42.9971
RA_OF_ASC_NODE = 320.2110
ARG_OF_PERICENTER = 229.9256
MEAN_ANOMALY   = 130.1374

EPHEMERIS_TYPE = 0
CLASSIFICATION_TYPE = U
NORAD_CAT_ID   = 67827
ELEMENT_SET_NO = 999
REV_AT_EPOCH   = 336
BSTAR          = .34003E-2
MEAN_MOTION_DOT = .799433E-2
MEAN_MOTION_DDOT = 0

CCSDS_OMM_VERS = 2.0
CREATION_DATE  = 
ORIGINATOR     = 

OBJECT_NAME    = STARLINK-36670
OBJECT_ID      = 2026-033H
CENTER_NAME    = EARTH
REF_FRAME      = TEME
TIME_SYSTEM    = UTC
MEAN_ELEMENT_THEORY = SGP/SGP4

EPOCH          = 2026-03-01T17:37:21.744480
MEAN_MOTION    = 15.82043553
ECCENTRICITY   = .000172
INCLINATION    = 42.9970
RA_OF_ASC_NODE = 320.2048
ARG_OF_PERICENTER = 287.4845
MEAN_ANOMALY   = 72.5839

EPHEMERIS_TYPE = 0
CLASSIFICATION_TYPE = U
NORAD_CAT_ID   = 67828
ELEMENT_SET_NO = 999
REV_AT_EPOCH   = 336
BSTAR          = .16313E-2
MEAN_MOTION_DOT = .358019E-2
MEAN_MOTION_DDOT = 0

CCSDS_OMM_VERS = 2.0
CREATION_DATE  = 
ORIGINATOR     = 

OBJECT_NAME    = STARLINK-36144
OBJECT_ID      = 2026-033J
CENTER_NAME    = EARTH
REF_FRAME      = TEME
TIME_SYSTEM    = UTC
MEAN_ELEMENT_THEORY = SGP/SGP4

EPOCH          = 2026-03-01T17:36:17.071488
MEAN_MOTION    = 15.82031333
ECCENTRICITY   = .0002049
INCLINATION    = 42.9978
RA_OF_ASC_NODE = 320.1988
ARG_OF_PERICENTER = 255.4798
MEAN_ANOMALY   = 104.5847

EPHEMERIS_TYPE = 0
CLASSIFICATION_TYPE = U
NORAD_CAT_ID   = 67829
ELEMENT_SET_NO = 999
REV_AT_EPOCH   = 336
BSTAR          = .11384E-2
MEAN_MOTION_DOT = .246296E-2
MEAN_MOTION_DDOT = 0

CCSDS_OMM_VERS = 2.0
CREATION_DATE  = 
ORIGINATOR     = 

OBJECT_NAME    = STARLINK-36611
OBJECT_ID      = 2026-033K
CENTER_NAME    = EARTH
REF_FRAME      = TEME
TIME_SYSTEM    = UTC
MEAN_ELEMENT_THEORY = SGP/SGP4

EPOCH          = 2026-03-01T19:06:07.189920
MEAN_MOTION    = 15.82071326
ECCENTRICITY   = .0001383
INCLINATION    = 42.9976
RA_OF_ASC_NODE = 319.8046
ARG_OF_PERICENTER = 259.7257
MEAN_ANOMALY   = 100.3458

EPHEMERIS_TYPE = 0
CLASSIFICATION_TYPE = U
NORAD_CAT_ID   = 67830
ELEMENT_SET_NO = 999
REV_AT_EPOCH   = 337
BSTAR          = .11587E-2
MEAN_MOTION_DOT = .251318E-2
MEAN_MOTION_DDOT = 0

CCSDS_OMM_VERS = 2.0
CREATION_DATE  = 
ORIGINATOR     = 

OBJECT_NAME    = STARLINK-36661
OBJECT_ID      = 2026-033L
CENTER_NAME    = EARTH
REF_FRAME      = TEME
TIME_SYSTEM    = UTC
MEAN_ELEMENT_THEORY = SGP/SGP4

EPOCH          = 2026-03-01T19:05:01.729824
MEAN_MOTION    = 15.82165482
ECCENTRICITY   = .0002442
INCLINATION    = 42.9978
RA_OF_ASC_NODE = 319.7984
ARG_OF_PERICENTER = 233.3425
MEAN_ANOMALY   = 126.7222

EPHEMERIS_TYPE = 0
CLASSIFICATION_TYPE = U
NORAD_CAT_ID   = 67831
ELEMENT_SET_NO = 999
REV_AT_EPOCH   = 337
BSTAR          = .16391E-2
MEAN_MOTION_DOT = .36196E-2
MEAN_MOTION_DDOT = 0

CCSDS_OMM_VERS = 2.0
CREATION_DATE  = 
ORIGINATOR     = 

OBJECT_NAME    = STARLINK-36662
OBJECT_ID      = 2026-033M
CENTER_NAME    = EARTH
REF_FRAME      = TEME
TIME_SYSTEM    = UTC
MEAN_ELEMENT_THEORY = SGP/SGP4

EPOCH          = 2026-03-01T17:52:52.721760
MEAN_MOTION    = 15.84472365
ECCENTRICITY   = .0001973
INCLINATION    = 42.9955
RA_OF_ASC_NODE = 319.3836
ARG_OF_PERICENTER = 269.9245
MEAN_ANOMALY   = 90.1401

EPHEMERIS_TYPE = 0
CLASSIFICATION_TYPE = U
NORAD_CAT_ID   = 67832
ELEMENT_SET_NO = 999
REV_AT_EPOCH   = 337
BSTAR          = .56665E-3
MEAN_MOTION_DOT = .135592E-2
MEAN_MOTION_DDOT = 0

CCSDS_OMM_VERS = 2.0
CREATION_DATE  = 
ORIGINATOR     = 

OBJECT_NAME    = STARLINK-36659
OBJECT_ID      = 2026-033N
CENTER_NAME    = EARTH
REF_FRAME      = TEME
TIME_SYSTEM    = UTC
MEAN_ELEMENT_THEORY = SGP/SGP4

EPOCH          = 2026-03-01T19:03:57.259008
MEAN_MOTION    = 15.82121845
ECCENTRICITY   = .0001927
INCLINATION    = 42.9977
RA_OF_ASC_NODE = 319.7926
ARG_OF_PERICENTER = 250.9129
MEAN_ANOMALY   = 109.1534

EPHEMERIS_TYPE = 0
CLASSIFICATION_TYPE = U
NORAD_CAT_ID   = 67833
ELEMENT_SET_NO = 999
REV_AT_EPOCH   = 337
BSTAR          = .14502E-2
MEAN_MOTION_DOT = .317882E-2
MEAN_MOTION_DDOT = 0

CCSDS_OMM_VERS = 2.0
CREATION_DATE  = 
ORIGINATOR     = 

OBJECT_NAME    = STARLINK-36655
OBJECT_ID      = 2026-033P
CENTER_NAME    = EARTH
REF_FRAME      = TEME
TIME_SYSTEM    = UTC
MEAN_ELEMENT_THEORY = SGP/SGP4

EPOCH          = 2026-03-01T17:31:58.045152
MEAN_MOTION    = 15.82036696
ECCENTRICITY   = .0001634
INCLINATION    = 42.9974
RA_OF_ASC_NODE = 320.1745
ARG_OF_PERICENTER = 278.6285
MEAN_ANOMALY   = 81.4402

EPHEMERIS_TYPE = 0
CLASSIFICATION_TYPE = U
NORAD_CAT_ID   = 67834
ELEMENT_SET_NO = 999
REV_AT_EPOCH   = 336
BSTAR          = .15768E-2
MEAN_MOTION_DOT = .345405E-2
MEAN_MOTION_DDOT = 0

CCSDS_OMM_VERS = 2.0
CREATION_DATE  = 
ORIGINATOR     = 

OBJECT_NAME    = STARLINK-36657
OBJECT_ID      = 2026-033Q
CENTER_NAME    = EARTH
REF_FRAME      = TEME
TIME_SYSTEM    = UTC
MEAN_ELEMENT_THEORY = SGP/SGP4

EPOCH          = 2026-03-01T17:30:53.340192
MEAN_MOTION    = 15.82076317
ECCENTRICITY   = .0001465
INCLINATION    = 42.9974
RA_OF_ASC_NODE = 320.1684
ARG_OF_PERICENTER = 285.9269
MEAN_ANOMALY   = 74.1441

EPHEMERIS_TYPE = 0
CLASSIFICATION_TYPE = U
NORAD_CAT_ID   = 67835
ELEMENT_SET_NO = 999
REV_AT_EPOCH   = 336
BSTAR          = .17438E-2
MEAN_MOTION_DOT = .384518E-2
MEAN_MOTION_DDOT = 0

